{
  "type": "FeatureCollection",
  "features": [
    {
      "type": "Feature",
      "properties": {
        "norad_id": 36371,
        "name": "COSMOS 2251 DEB",
        "group": "cosmos-2251-debris",
        "lat": 42.03944714182217,
        "lon": -35.787712630277795,
        "alt_km": 651.9963643597466,
        "timestamp": "2025-12-13T22:39:30.108748+00:00",
        "meta_object_name": "COSMOS 2251 DEB",
        "meta_object_id": "1993-036AYY",
        "meta_epoch": "2025-12-13T04:05:01.207968",
        "meta_mean_motion": 14.70618704,
        "meta_eccentricity": 0.00096817,
        "meta_inclination": 74.0127,
        "meta_ra_of_asc_node": 160.6969,
        "meta_arg_of_pericenter": 198.9381,
        "meta_mean_anomaly": 161.1432,
        "meta_ephemeris_type": 0,
        "meta_classification_type": "U",
        "meta_norad_cat_id": 36371,
        "meta_element_set_no": 999,
        "meta_rev_at_epoch": 71451,
        "meta_bstar": 0.0027229729,
        "meta_mean_motion_dot": 0.00016584,
        "meta_mean_motion_ddot": 0,
        "tle_line1": "1 36371U 93036AYY 25347.17015287  .00016584  00000+0  27230-2 0  9992",
        "tle_line2": "2 36371  74.0127 160.6969 0009681 198.9381 161.1432 14.70618704714517"
      },
      "geometry": {
        "type": "Point",
        "coordinates": [
          -35.787712630277795,
          42.03944714182217
        ]
      }
    },
    {
      "type": "Feature",
      "properties": {
        "norad_id": 36379,
        "name": "COSMOS 2251 DEB",
        "group": "cosmos-2251-debris",
        "lat": 29.29441931122974,
        "lon": 115.35292819219842,
        "alt_km": 761.8694296913618,
        "timestamp": "2025-12-13T22:39:30.108758+00:00",
        "meta_object_name": "COSMOS 2251 DEB",
        "meta_object_id": "1993-036AZG",
        "meta_epoch": "2025-12-13T03:39:01.651680",
        "meta_mean_motion": 14.36079534,
        "meta_eccentricity": 0.00446264,
        "meta_inclination": 74.0126,
        "meta_ra_of_asc_node": 306.0647,
        "meta_arg_of_pericenter": 74.8853,
        "meta_mean_anomaly": 301.0382,
        "meta_ephemeris_type": 0,
        "meta_classification_type": "U",
        "meta_norad_cat_id": 36379,
        "meta_element_set_no": 999,
        "meta_rev_at_epoch": 64834,
        "meta_bstar": 0.00045338854,
        "meta_mean_motion_dot": 1.309e-05,
        "meta_mean_motion_ddot": 0,
        "tle_line1": "1 36379U 93036AZG 25347.15210245  .00001309  00000+0  45339-3 0  9999",
        "tle_line2": "2 36379  74.0126 306.0647 0044626  74.8853 301.0382 14.36079534648347"
      },
      "geometry": {
        "type": "Point",
        "coordinates": [
          115.35292819219842,
          29.29441931122974
        ]
      }
    },
    {
      "type": "Feature",
      "properties": {
        "norad_id": 36385,
        "name": "COSMOS 2251 DEB",
        "group": "cosmos-2251-debris",
        "lat": -69.24860021644484,
        "lon": 21.54515338892439,
        "alt_km": 623.9772706915828,
        "timestamp": "2025-12-13T22:39:30.108769+00:00",
        "meta_object_name": "COSMOS 2251 DEB",
        "meta_object_id": "1993-036AZN",
        "meta_epoch": "2025-12-12T21:01:44.669280",
        "meta_mean_motion": 14.72571648,
        "meta_eccentricity": 0.01412662,
        "meta_inclination": 73.9694,
        "meta_ra_of_asc_node": 154.2714,
        "meta_arg_of_pericenter": 328.6533,
        "meta_mean_anomaly": 30.6271,
        "meta_ephemeris_type": 0,
        "meta_classification_type": "U",
        "meta_norad_cat_id": 36385,
        "meta_element_set_no": 999,
        "meta_rev_at_epoch": 85104,
        "meta_bstar": 0.0019203945,
        "meta_mean_motion_dot": 0.00014301,
        "meta_mean_motion_ddot": 0,
        "tle_line1": "1 36385U 93036AZN 25346.87621145  .00014301  00000+0  19204-2 0  9996",
        "tle_line2": "2 36385  73.9694 154.2714 0141266 328.6533  30.6271 14.72571648851041"
      },
      "geometry": {
        "type": "Point",
        "coordinates": [
          21.54515338892439,
          -69.24860021644484
        ]
      }
    },
    {
      "type": "Feature",
      "properties": {
        "norad_id": 36420,
        "name": "COSMOS 2251 DEB",
        "group": "cosmos-2251-debris",
        "lat": 30.330958338038236,
        "lon": -77.0905571605329,
        "alt_km": 755.8116137245952,
        "timestamp": "2025-12-13T22:39:30.108779+00:00",
        "meta_object_name": "COSMOS 2251 DEB",
        "meta_object_id": "1993-036AZT",
        "meta_epoch": "2025-12-09T05:12:09.080064",
        "meta_mean_motion": 14.36895704,
        "meta_eccentricity": 0.001793,
        "meta_inclination": 74.0374,
        "meta_ra_of_asc_node": 281.9559,
        "meta_arg_of_pericenter": 10.5601,
        "meta_mean_anomaly": 57.255,
        "meta_ephemeris_type": 0,
        "meta_classification_type": "U",
        "meta_norad_cat_id": 36420,
        "meta_element_set_no": 999,
        "meta_rev_at_epoch": 84986,
        "meta_bstar": 0.00029505,
        "meta_mean_motion_dot": 8.48e-06,
        "meta_mean_motion_ddot": 0,
        "tle_line1": "1 36420U 93036AZT 25343.21677176  .00000848  00000+0  29505-3 0  9993",
        "tle_line2": "2 36420  74.0374 281.9559 0017930  10.5601  57.2550 14.36895704849860"
      },
      "geometry": {
        "type": "Point",
        "coordinates": [
          -77.0905571605329,
          30.330958338038236
        ]
      }
    },
    {
      "type": "Feature",
      "properties": {
        "norad_id": 36430,
        "name": "COSMOS 2251 DEB",
        "group": "cosmos-2251-debris",
        "lat": 13.271960389444972,
        "lon": 110.22590710418334,
        "alt_km": 832.0350669012514,
        "timestamp": "2025-12-13T22:39:30.108790+00:00",
        "meta_object_name": "COSMOS 2251 DEB",
        "meta_object_id": "1993-036BAD",
        "meta_epoch": "2025-12-07T15:14:59.696160",
        "meta_mean_motion": 14.27773173,
        "meta_eccentricity": 0.00973352,
        "meta_inclination": 74.0036,
        "meta_ra_of_asc_node": 117.7938,
        "meta_arg_of_pericenter": 268.8676,
        "meta_mean_anomaly": 90.1319,
        "meta_ephemeris_type": 0,
        "meta_classification_type": "U",
        "meta_norad_cat_id": 36430,
        "meta_element_set_no": 999,
        "meta_rev_at_epoch": 64484,
        "meta_bstar": 0.00083938099,
        "meta_mean_motion_dot": 2.154e-05,
        "meta_mean_motion_ddot": 0,
        "tle_line1": "1 36430U 93036BAD 25341.63541315  .00002154  00000+0  83938-3 0  9995",
        "tle_line2": "2 36430  74.0036 117.7938 0097335 268.8676  90.1319 14.27773173644845"
      },
      "geometry": {
        "type": "Point",
        "coordinates": [
          110.22590710418334,
          13.271960389444972
        ]
      }
    },
    {
      "type": "Feature",
      "properties": {
        "norad_id": 36437,
        "name": "COSMOS 2251 DEB",
        "group": "cosmos-2251-debris",
        "lat": -23.243309029264168,
        "lon": -141.24636189540456,
        "alt_km": 655.3436678586668,
        "timestamp": "2025-12-13T22:39:30.108800+00:00",
        "meta_object_name": "COSMOS 2251 DEB",
        "meta_object_id": "1993-036BAL",
        "meta_epoch": "2025-12-12T21:14:34.610784",
        "meta_mean_motion": 14.70699745,
        "meta_eccentricity": 0.00231229,
        "meta_inclination": 73.942,
        "meta_ra_of_asc_node": 33.7138,
        "meta_arg_of_pericenter": 265.0024,
        "meta_mean_anomaly": 94.8507,
        "meta_ephemeris_type": 0,
        "meta_classification_type": "U",
        "meta_norad_cat_id": 36437,
        "meta_element_set_no": 999,
        "meta_rev_at_epoch": 66053,
        "meta_bstar": 0.0021741293,
        "meta_mean_motion_dot": 0.00013297,
        "meta_mean_motion_ddot": 0,
        "tle_line1": "1 36437U 93036BAL 25346.88512281  .00013297  00000+0  21741-2 0  9997",
        "tle_line2": "2 36437  73.9420  33.7138 0023122 265.0024  94.8507 14.70699745660539"
      },
      "geometry": {
        "type": "Point",
        "coordinates": [
          -141.24636189540456,
          -23.243309029264168
        ]
      }
    },
    {
      "type": "Feature",
      "properties": {
        "norad_id": 36439,
        "name": "COSMOS 2251 DEB",
        "group": "cosmos-2251-debris",
        "lat": -41.76661735339601,
        "lon": 19.917033000511232,
        "alt_km": 874.5820802113285,
        "timestamp": "2025-12-13T22:39:30.108810+00:00",
        "meta_object_name": "COSMOS 2251 DEB",
        "meta_object_id": "1993-036BAN",
        "meta_epoch": "2025-12-11T12:04:38.629632",
        "meta_mean_motion": 13.47792153,
        "meta_eccentricity": 0.04277143,
        "meta_inclination": 73.9683,
        "meta_ra_of_asc_node": 38.6892,
        "meta_arg_of_pericenter": 10.8049,
        "meta_mean_anomaly": 350.189,
        "meta_ephemeris_type": 0,
        "meta_classification_type": "U",
        "meta_norad_cat_id": 36439,
        "meta_element_set_no": 999,
        "meta_rev_at_epoch": 58596,
        "meta_bstar": 0.0014143946,
        "meta_mean_motion_dot": 1.502e-05,
        "meta_mean_motion_ddot": 0,
        "tle_line1": "1 36439U 93036BAN 25345.50322488  .00001502  00000+0  14144-2 0  9990",
        "tle_line2": "2 36439  73.9683  38.6892 0427714  10.8049 350.1890 13.47792153585967"
      },
      "geometry": {
        "type": "Point",
        "coordinates": [
          19.917033000511232,
          -41.76661735339601
        ]
      }
    }
  ]
}